#cP2023  4 20  0  0  0.00000000      96 ORBIT IGS20 HLM  IGS
## 2258 345600.00000000   900.00000000 60054 0.0000000000000
+   32   G01G02G03G04G05G06G07G08G09G10G11G12G13G14G15G16G17
+        G18G19G20G21G22G23G24G25G26G27G28G29G30G31G32  0  0
+          0  0  0  0  0  0  0  0  0  0  0  0  0  0  0  0  0
+          0  0  0  0  0  0  0  0  0  0  0  0  0  0  0  0  0
+          0  0  0  0  0  0  0  0  0  0  0  0  0  0  0  0  0
++         3  2  2  2  2  3  2  2  2  2  3  2  2  2  2  2  2
++         3  2  2  2  3  2  2  2  2  2  3  2  2  2  2  0  0
++         0  0  0  0  0  0  0  0  0  0  0  0  0  0  0  0  0
++         0  0  0  0  0  0  0  0  0  0  0  0  0  0  0  0  0
++         0  0  0  0  0  0  0  0  0  0  0  0  0  0  0  0  0
%c G  cc GPS ccc cccc cccc cccc cccc ccccc ccccc ccccc ccccc
%c cc cc ccc ccc cccc cccc cccc cccc ccccc ccccc ccccc ccccc
%f  1.2500000  1.025000000  0.00000000000  0.000000000000000
%f  0.0000000  0.000000000  0.00000000000  0.000000000000000
%i    0    0    0    0      0      0      0      0         0
%i    0    0    0    0      0      0      0      0         0
/* RAPID ORBIT COMBINATION FROM WEIGHTED AVERAGE OF:        
/* cod emr esa gfz grg jpl ngs sio usn whu                  
/* REFERENCED TO IGS TIME (IGST) AND TO WEIGHTED MEAN POLE: 
/* PCV:IGS20_2233 OL/AL:FES2014b NONE     Y  ORB:CMB CLK:CMB
*  2023  4 20  3 45  0.00000000
PG01 -14046.886926  20908.124591   7495.681408    191.803741  9 10  7 122       
PG02   1924.225740 -25549.924733   8186.439016   -604.315428  5  5  5  89       
PG03 -18020.830252  12727.074813 -14827.147308   -324.914473  6  6  6 108       
PG04  -7417.667929  14520.680814 -20931.692142     21.140249  4  5  6  93       
PG05  26192.424443  -4778.886243   -425.780826   -124.080641  5  7  5 107       
PG06   8430.174436  14735.241221 -20336.066761    587.330562  5  8  8  99       
PG07  -5143.686806  25103.570032   6372.207368    197.376237  7  8  7 114       
PG08 -16364.798401   3072.632325  20706.022164   -118.591922  8  6  5 103       
PG09   2909.631129  21123.027923 -15878.769609   -176.333594  3  8  4 106       
PG10 -12710.262171 -11931.609465  20306.407216    -33.567317  4  7  5  87       
PG11  16039.414244    123.360977 -21156.373998   -168.432637  7  2  7 121       
PG12  20597.406285 -10675.056894 -13131.070913   -366.080059  6  8  5  74       
PG13  18084.825206   5707.888621  18503.991335    508.315576  3  4  5 123       
PG14   9307.376001  13856.178318  20697.152129     30.542119  6  6  3  97       
PG15  15843.015113  -5595.667407  20169.083000     32.204983  4  4  5 112       
PG16 -26650.206578   -634.397919  -3137.462768   -507.535831  5  7  7  95       
PG17  12689.809364  22996.862758   3974.224276    711.390726  6  7  4 104       
PG18   3372.992656 -24541.451182   9373.515387   -231.819182  6  8  6  83       
PG19  17241.652701  19533.722173  -6126.330316    306.009056  3  5  4  90       
PG20  24448.453508   -298.989665 -10095.393626    438.054472  4  5  7 115       
PG21 -15926.076201  13835.698958  16150.147623    154.157133  8  7  7  90       
PG22 -18298.220696 -17391.201077  -8066.335057    467.261179  7  7  5 137       
PG23    779.109095 -15184.089459  21769.567607     18.068076  3  6  6  98       
PG24  14490.311483 -18494.243348  11617.529414   -158.459146  5  7  6  86       
PG25   9891.801819 -15505.059953 -19382.201901    436.912599  5  6  4 105       
PG26 -21516.416317  -6372.311068 -14581.329222    241.614458  4  7  5 111       
PG27 -20122.152232  -8556.859822  15115.296589     55.042251  4  3  4  75       
PG28  -8275.721690 -16491.697723 -19132.716327     67.698797  7  8  5 113       
PG29   1909.237449 -19222.160104 -18248.363370   -596.231867  5  6  6  77       
PG30   3836.993076  21079.215361  15632.344835   -521.503639  6  6  6  89       
PG31 -13171.251679  -8251.413072 -21687.012280   -214.363758  4  8  3 110       
PG32 -15966.101710 -21330.794588   1354.095299   -456.080947  5  6  5  93       
*  2023  4 20  4  0  0.00000000
PG01 -13847.310188  19849.899773  10183.028114    191.800871  9 10  7  92       
PG02   2296.347764 -26183.505731   5473.925823   -604.312233  5  6  5  98       
PG03 -19574.540005  12839.484607 -12557.810269   -324.906047  6  5  6 103       
PG04  -8970.213000  12645.099981 -21541.814413     21.148690  4  5  6  86       
PG05  26056.630380  -4510.179790  -3273.461369   -124.081860  5  7  4 105       
PG06   7567.420927  16825.348754 -19005.813581    587.331420  5  8  8  88       
PG07  -5613.734353  25494.865300   3584.790146    197.368325  7  8  7 114       
PG08 -17847.617887   1291.844353  19680.935657   -118.593931  7  6  5  94       
PG09   1514.942806  19805.137213 -17681.193222   -176.326387  4  8  4 102       
PG10 -10426.485923 -12404.214973  21281.918646    -33.568477  3  7  5  87       
PG11  15135.828996   2402.999518 -21682.379633   -168.444186  7  5  7 120       
PG12  21939.339965 -10619.113550 -10723.740378   -366.084190  5  8  6  66       
PG13  19069.061355   7504.488552  16831.853725    508.320387  3  4  5 120       
PG14   6937.627158  14266.039456  21326.311131     30.552743  6  6  4 104       
PG15  17516.309547  -3946.634840  19197.424540     32.208133  4  3  5 110       
PG16 -26193.415494   -876.268470  -5914.901531   -507.533326  5  7  7  98       
PG17  12180.886056  22669.112813   6775.656075    711.392171  6  7  4 109       
PG18   3900.036710 -25326.393464   6684.119046   -231.833982  6  8  6  70       
PG19  17370.450881  20062.522753  -3329.379307    306.013477  4  5  5  88       
PG20  23308.077036    391.144044 -12511.659731    438.052173  4  4  7 114       
PG21 -15625.376203  11962.429308  17977.835987    154.157014  7  7  7  96       
PG22 -18581.544036 -18193.579008  -5357.109716    467.267339  7  7  5 132       
PG23   3192.557571 -15643.502310  21203.841732     18.070462  3  6  6 100       
PG24  14389.840077 -16938.292372  13870.807943   -158.472174  5  6  7  71       
PG25  11968.110785 -15754.905400 -17907.087732    436.915175  5  6  4 110       
PG26 -19864.748256  -6997.338866 -16495.682165    241.614177  3  8  4 106       
PG27 -21054.163959  -9900.721767  12938.969671     55.034686  3  3  3  92       
PG28  -7508.450876 -18447.323346 -17600.697166     67.704002  7  8  5 109       
PG29   3262.704706 -17535.338821 -19708.822505   -596.233041  5  6  6  86       
PG30   3022.039528  22558.690871  13574.460065   -521.501878  6  7  6  99       
PG31 -12244.089144 -10492.183037 -21214.447911   -214.364686  3  8  3 119       
PG32 -15590.415243 -21265.029906   4171.974782   -456.089821  5  6  5  75       
*  2023  4 20  4 15  0.00000000
PG01 -13618.961217  18494.981497  12688.989533    191.798130  9  9  7  95       
PG02   2575.218515 -26535.632246   2670.231038   -604.308879  5  7  5  96       
PG03 -20859.215290  12972.576695 -10072.485708   -324.897671  5  5  6 116       
PG04 -10649.833411  10818.021155 -21780.462275     21.157066  4  5  6  89       
PG05  25629.751647  -4146.912033  -6065.356744   -124.083085  4  7  4  97       
PG06   6872.783171  18797.921336 -17345.814522    587.332259  5  8  7 100       
PG07  -5976.166579  25600.666949    734.244352    197.360592  7  8  7 123       
PG08 -19323.503158   -311.110252  18318.681446   -118.595170  7  6  5 106       
PG09    -76.323832  18428.706266 -19180.460302   -176.319207  4  8  4 110       
PG10  -8083.581418 -13025.038831  21898.898769    -33.569483  2  6  5  90       
PG11  14341.298190   4763.144045 -21834.949352   -168.455779  6  6  7 121       
PG12  23006.382313 -10585.624707  -8133.294105   -366.088542  5  8  6  48       
PG13  20026.607030   9075.871846  14868.699607    508.325304  3  4  5 118       
PG14   4540.850697  14805.303886  21589.304021     30.563367  6  6  4 109       
PG15  19159.600476  -2462.383321  17884.980503     32.211254  4  1  5 102       
PG16 -25449.465145  -1186.247310  -8593.996259   -507.530761  5  7  7  88       
PG17  11458.754226  22131.410065   9461.182989    711.393740  6  8  4 107       
PG18   4290.692436 -25840.322473   3878.666280   -231.848846  6  8  5  73       
PG19  17333.340698  20332.986602   -476.322001    306.017968  5  6  5  77       
PG20  21962.744257   1239.511105 -14710.075259    438.050469  4  4  7 110       
PG21 -15384.135336   9900.993378  19499.457384    154.156610  6  6  6  81       
PG22 -18712.462396 -18733.199327  -2555.544732    467.273433  8  7  5 129       
PG23   5497.177057 -16210.267363  20272.546421     18.072852  4  6  5 100       
PG24  14313.430438 -15139.518092  15875.378533   -158.485274  4  5  7  61       
PG25  13855.730686 -16065.414473 -16128.151448    436.917795  6  7  5 106       
PG26 -18054.912600  -7761.972695 -18132.208161    241.613873  3  8  4  95       
PG27 -21877.207455 -11002.438490  10541.471106     55.027108  3  3  3  86       
PG28  -6891.804021 -20256.119451 -15766.455020     67.709240  8  9  5 114       
PG29   4798.238768 -15812.443361 -20830.955992   -596.234691  5  6  6  90       
PG30   2349.233983  23841.671370  11281.408583   -521.500151  6  8  6  95       
PG31 -11453.885244 -12711.926081 -20380.398572   -214.365251  3  7  3 113       
PG32 -14995.031001 -20993.668732   6919.146874   -456.098707  5  6  5  72       
EOF
